{
  "type": "FeatureCollection",
  "features": [
    {
      "type": "Feature",
      "properties": {
        "shape_id": "Untitled",
        "route_id": null,
        "route_name": "Untitled"
      },
      "geometry": {
        "type": "LineString",
        "coordinates": [
          [
            -77.020162,
            38.927474
          ],
          [
            -77.020146,
            38.927609
          ],
          [
            -77.019871,
            38.927804
          ],
          [
            -77.018117,
            38.927954
          ],
          [
            -77.017409,
            38.927794
          ],
          [
            -77.014897,
            38.926416
          ],
          [
            -77.013796,
            38.926234
          ],
          [
            -77.012262,
            38.926226
          ],
          [
            -77.01222,
            38.921515
          ],
          [
            -77.012272,
            38.920851
          ],
          [
            -77.012159,
            38.920313
          ],
          [
            -77.012211,
            38.920206
          ],
          [
            -77.013392,
            38.920363
          ],
          [
            -77.014661,
            38.920342
          ],
          [
            -77.016621,
            38.920475
          ],
          [
            -77.020777,
            38.920127
          ],
          [
            -77.021348,
            38.920118
          ],
          [
            -77.021559,
            38.920038
          ],
          [
            -77.021999,
            38.920043
          ],
          [
            -77.022596,
            38.92402
          ],
          [
            -77.023563,
            38.924157
          ],
          [
            -77.025509,
            38.923966
          ],
          [
            -77.025603,
            38.924009
          ],
          [
            -77.025755,
            38.924823
          ]
        ]
      }
    }
  ]
}