{
  "type": "FeatureCollection",
  "features": [
    {
      "type": "Feature",
      "properties": {
        "shape_id": "Berlin Sample Route",
        "route_id": null,
        "route_name": "Berlin Sample Route"
      },
      "geometry": {
        "type": "LineString",
        "coordinates": [
          [
            13.404954,
            52.520008
          ],
          [
            13.4085,
            52.5192
          ],
          [
            13.4159,
            52.5163
          ],
          [
            13.4201,
            52.5149
          ],
          [
            13.4243,
            52.5137
          ],
          [
            13.4374,
            52.5102
          ],
          [
            13.4415,
            52.509
          ]
        ]
      }
    }
  ]
}